CCSDS_OMM_VERS = 2.0
CREATION_DATE  = 
ORIGINATOR     = 

OBJECT_NAME    = STARLINK-36430
OBJECT_ID      = 2026-002X
CENTER_NAME    = EARTH
REF_FRAME      = TEME
TIME_SYSTEM    = UTC
MEAN_ELEMENT_THEORY = SGP/SGP4

EPOCH          = 2026-01-19T14:00:01.999872
MEAN_MOTION    = 15.74995610
ECCENTRICITY   = .00015363
INCLINATION    = 43.0014
RA_OF_ASC_NODE = 247.6458
ARG_OF_PERICENTER = 258.2784
MEAN_ANOMALY   = 2.6528

EPHEMERIS_TYPE = 0
CLASSIFICATION_TYPE = U
NORAD_CAT_ID   = 67326
ELEMENT_SET_NO = 999
REV_AT_EPOCH   = 368
BSTAR          = .37916215E-3
MEAN_MOTION_DOT = .58056E-3
MEAN_MOTION_DDOT = 0

CCSDS_OMM_VERS = 2.0
CREATION_DATE  = 
ORIGINATOR     = 

OBJECT_NAME    = STARLINK-36501
OBJECT_ID      = 2026-002Y
CENTER_NAME    = EARTH
REF_FRAME      = TEME
TIME_SYSTEM    = UTC
MEAN_ELEMENT_THEORY = SGP/SGP4

EPOCH          = 2026-01-19T14:00:01.999872
MEAN_MOTION    = 15.75019934
ECCENTRICITY   = .00019971
INCLINATION    = 42.9988
RA_OF_ASC_NODE = 247.6520
ARG_OF_PERICENTER = 260.6323
MEAN_ANOMALY   = 358.3699

EPHEMERIS_TYPE = 0
CLASSIFICATION_TYPE = U
NORAD_CAT_ID   = 67327
ELEMENT_SET_NO = 999
REV_AT_EPOCH   = 352
BSTAR          = .20394208E-3
MEAN_MOTION_DOT = .30939E-3
MEAN_MOTION_DDOT = 0

CCSDS_OMM_VERS = 2.0
CREATION_DATE  = 
ORIGINATOR     = 

OBJECT_NAME    = STARLINK-36489
OBJECT_ID      = 2026-002Z
CENTER_NAME    = EARTH
REF_FRAME      = TEME
TIME_SYSTEM    = UTC
MEAN_ELEMENT_THEORY = SGP/SGP4

EPOCH          = 2026-01-19T14:00:01.999872
MEAN_MOTION    = 15.74969418
ECCENTRICITY   = .00017582
INCLINATION    = 43.0014
RA_OF_ASC_NODE = 247.6417
ARG_OF_PERICENTER = 267.0875
MEAN_ANOMALY   = 355.7568

EPHEMERIS_TYPE = 0
CLASSIFICATION_TYPE = U
NORAD_CAT_ID   = 67328
ELEMENT_SET_NO = 999
REV_AT_EPOCH   = 368
BSTAR          = .69821473E-3
MEAN_MOTION_DOT = .107826E-2
MEAN_MOTION_DDOT = 0

CCSDS_OMM_VERS = 2.0
CREATION_DATE  = 
ORIGINATOR     = 

OBJECT_NAME    = STARLINK-36496
OBJECT_ID      = 2026-002AA
CENTER_NAME    = EARTH
REF_FRAME      = TEME
TIME_SYSTEM    = UTC
MEAN_ELEMENT_THEORY = SGP/SGP4

EPOCH          = 2026-01-19T14:00:01.999872
MEAN_MOTION    = 15.75002366
ECCENTRICITY   = .00014653
INCLINATION    = 43.0027
RA_OF_ASC_NODE = 247.6314
ARG_OF_PERICENTER = 265.7598
MEAN_ANOMALY   = 0.9106

EPHEMERIS_TYPE = 0
CLASSIFICATION_TYPE = U
NORAD_CAT_ID   = 67329
ELEMENT_SET_NO = 999
REV_AT_EPOCH   = 350
BSTAR          = .30880313E-3
MEAN_MOTION_DOT = .47146E-3
MEAN_MOTION_DDOT = 0

CCSDS_OMM_VERS = 2.0
CREATION_DATE  = 
ORIGINATOR     = 

OBJECT_NAME    = STARLINK-36483
OBJECT_ID      = 2026-002AB
CENTER_NAME    = EARTH
REF_FRAME      = TEME
TIME_SYSTEM    = UTC
MEAN_ELEMENT_THEORY = SGP/SGP4

EPOCH          = 2026-01-19T14:00:01.999872
MEAN_MOTION    = 15.74994790
ECCENTRICITY   = .00018606
INCLINATION    = 43.0011
RA_OF_ASC_NODE = 247.6213
ARG_OF_PERICENTER = 257.2024
MEAN_ANOMALY   = 13.3201

EPHEMERIS_TYPE = 0
CLASSIFICATION_TYPE = U
NORAD_CAT_ID   = 67330
ELEMENT_SET_NO = 999
REV_AT_EPOCH   = 368
BSTAR          = .28791557E-3
MEAN_MOTION_DOT = .43894E-3
MEAN_MOTION_DDOT = 0

CCSDS_OMM_VERS = 2.0
CREATION_DATE  = 
ORIGINATOR     = 

OBJECT_NAME    = STARLINK-36494
OBJECT_ID      = 2026-002AC
CENTER_NAME    = EARTH
REF_FRAME      = TEME
TIME_SYSTEM    = UTC
MEAN_ELEMENT_THEORY = SGP/SGP4

EPOCH          = 2026-01-19T14:00:01.999872
MEAN_MOTION    = 15.75014470
ECCENTRICITY   = .00013905
INCLINATION    = 42.9987
RA_OF_ASC_NODE = 247.6366
ARG_OF_PERICENTER = 272.7340
MEAN_ANOMALY   = 352.0131

EPHEMERIS_TYPE = 0
CLASSIFICATION_TYPE = U
NORAD_CAT_ID   = 67331
ELEMENT_SET_NO = 999
REV_AT_EPOCH   = 368
BSTAR          = .25282796E-3
MEAN_MOTION_DOT = .38494E-3
MEAN_MOTION_DDOT = 0

CCSDS_OMM_VERS = 2.0
CREATION_DATE  = 
ORIGINATOR     = 

OBJECT_NAME    = STARLINK-36492
OBJECT_ID      = 2026-002AD
CENTER_NAME    = EARTH
REF_FRAME      = TEME
TIME_SYSTEM    = UTC
MEAN_ELEMENT_THEORY = SGP/SGP4

EPOCH          = 2026-01-19T14:00:01.999872
MEAN_MOTION    = 15.75002193
ECCENTRICITY   = .000237
INCLINATION    = 43.0011
RA_OF_ASC_NODE = 247.6264
ARG_OF_PERICENTER = 259.4829
MEAN_ANOMALY   = 9.1165

EPHEMERIS_TYPE = 0
CLASSIFICATION_TYPE = U
NORAD_CAT_ID   = 67332
ELEMENT_SET_NO = 999
REV_AT_EPOCH   = 368
BSTAR          = .22044442E-3
MEAN_MOTION_DOT = .33466E-3
MEAN_MOTION_DDOT = 0

CCSDS_OMM_VERS = 2.0
CREATION_DATE  = 
ORIGINATOR     = 

OBJECT_NAME    = STARLINK-36427
OBJECT_ID      = 2026-002AE
CENTER_NAME    = EARTH
REF_FRAME      = TEME
TIME_SYSTEM    = UTC
MEAN_ELEMENT_THEORY = SGP/SGP4

EPOCH          = 2026-01-19T14:00:01.999872
MEAN_MOTION    = 15.80339869
ECCENTRICITY   = .00015469
INCLINATION    = 42.9945
RA_OF_ASC_NODE = 247.0126
ARG_OF_PERICENTER = 267.4267
MEAN_ANOMALY   = 243.8208

EPHEMERIS_TYPE = 0
CLASSIFICATION_TYPE = U
NORAD_CAT_ID   = 67333
ELEMENT_SET_NO = 999
REV_AT_EPOCH   = 358
BSTAR          = -.10884783E-1
MEAN_MOTION_DOT = -.1856307E-1
MEAN_MOTION_DDOT = 0

CCSDS_OMM_VERS = 2.0
CREATION_DATE  = 
ORIGINATOR     = 

OBJECT_NAME    = STARLINK-35343
OBJECT_ID      = 2026-003A
CENTER_NAME    = EARTH
REF_FRAME      = TEME
TIME_SYSTEM    = UTC
MEAN_ELEMENT_THEORY = SGP/SGP4

EPOCH          = 2026-01-19T14:00:01.999872
MEAN_MOTION    = 15.87095273
ECCENTRICITY   = .00015076
INCLINATION    = 42.9980
RA_OF_ASC_NODE = 151.1433
ARG_OF_PERICENTER = 283.5609
MEAN_ANOMALY   = 186.1272

EPHEMERIS_TYPE = 0
CLASSIFICATION_TYPE = U
NORAD_CAT_ID   = 67334
ELEMENT_SET_NO = 999
REV_AT_EPOCH   = 272
BSTAR          = -.5700935E-2
MEAN_MOTION_DOT = -.1346048E-1
MEAN_MOTION_DDOT = 0

CCSDS_OMM_VERS = 2.0
CREATION_DATE  = 
ORIGINATOR     = 

OBJECT_NAME    = STARLINK-36486
OBJECT_ID      = 2026-003B
CENTER_NAME    = EARTH
REF_FRAME      = TEME
TIME_SYSTEM    = UTC
MEAN_ELEMENT_THEORY = SGP/SGP4

EPOCH          = 2026-01-19T14:00:01.999872
MEAN_MOTION    = 15.87132286
ECCENTRICITY   = .0001408
INCLINATION    = 42.9981
RA_OF_ASC_NODE = 151.1390
ARG_OF_PERICENTER = 284.4666
MEAN_ANOMALY   = 187.0018

EPHEMERIS_TYPE = 0
CLASSIFICATION_TYPE = U
NORAD_CAT_ID   = 67335
ELEMENT_SET_NO = 999
REV_AT_EPOCH   = 277
BSTAR          = -.57497185E-2
MEAN_MOTION_DOT = -.1358252E-1
MEAN_MOTION_DDOT = 0

CCSDS_OMM_VERS = 2.0
CREATION_DATE  = 
ORIGINATOR     = 

OBJECT_NAME    = STARLINK-36480
OBJECT_ID      = 2026-003C
CENTER_NAME    = EARTH
REF_FRAME      = TEME
TIME_SYSTEM    = UTC
MEAN_ELEMENT_THEORY = SGP/SGP4

EPOCH          = 2026-01-19T14:00:01.999872
MEAN_MOTION    = 15.87156063
ECCENTRICITY   = .0001432
INCLINATION    = 42.9983
RA_OF_ASC_NODE = 151.1332
ARG_OF_PERICENTER = 283.1793
MEAN_ANOMALY   = 190.5915

EPHEMERIS_TYPE = 0
CLASSIFICATION_TYPE = U
NORAD_CAT_ID   = 67336
ELEMENT_SET_NO = 999
REV_AT_EPOCH   = 277
BSTAR          = -.57744481E-2
MEAN_MOTION_DOT = -.1364795E-1
MEAN_MOTION_DDOT = 0

CCSDS_OMM_VERS = 2.0
CREATION_DATE  = 
ORIGINATOR     = 

OBJECT_NAME    = STARLINK-36410
OBJECT_ID      = 2026-003D
CENTER_NAME    = EARTH
REF_FRAME      = TEME
TIME_SYSTEM    = UTC
MEAN_ELEMENT_THEORY = SGP/SGP4

EPOCH          = 2026-01-19T14:00:01.999872
MEAN_MOTION    = 15.87175092
ECCENTRICITY   = .00015147
INCLINATION    = 42.9983
RA_OF_ASC_NODE = 151.1272
ARG_OF_PERICENTER = 279.3466
MEAN_ANOMALY   = 196.7365

EPHEMERIS_TYPE = 0
CLASSIFICATION_TYPE = U
NORAD_CAT_ID   = 67337
ELEMENT_SET_NO = 999
REV_AT_EPOCH   = 277
BSTAR          = -.57949488E-2
MEAN_MOTION_DOT = -.137023E-1
MEAN_MOTION_DDOT = 0

