STARLINK-36430          
1 67326U 26002X   26019.58335648  .00058056  00000+0  37916-3 0  9996
2 67326  43.0014 247.6458 0001536 258.2784   2.6528 15.74995610  3682
STARLINK-36501          
1 67327U 26002Y   26019.58335648  .00030939  00000+0  20394-3 0  9999
2 67327  42.9988 247.6520 0001997 260.6323 358.3699 15.75019934  3528
STARLINK-36489          
1 67328U 26002Z   26019.58335648  .00107826  00000+0  69821-3 0  9998
2 67328  43.0014 247.6417 0001758 267.0875 355.7568 15.74969418  3687
STARLINK-36496          
1 67329U 26002AA  26019.58335648  .00047146  00000+0  30880-3 0  9990
2 67329  43.0027 247.6314 0001465 265.7598   0.9106 15.75002366  3509
STARLINK-36483          
1 67330U 26002AB  26019.58335648  .00043894  00000+0  28792-3 0  9997
2 67330  43.0011 247.6213 0001860 257.2024  13.3201 15.74994790  3684
STARLINK-36494          
1 67331U 26002AC  26019.58335648  .00038494  00000+0  25283-3 0  9990
2 67331  42.9987 247.6366 0001390 272.7340 352.0131 15.75014470  3689
STARLINK-36492          
1 67332U 26002AD  26019.58335648  .00033466  00000+0  22044-3 0  9997
2 67332  43.0011 247.6264 0002370 259.4829   9.1165 15.75002193  3686
STARLINK-36427          
1 67333U 26002AE  26019.58335648 -.01856307  00000+0 -10885-1 0  9996
2 67333  42.9945 247.0126 0001546 267.4267 243.8208 15.80339869  3584
STARLINK-35343          
1 67334U 26003A   26019.58335648 -.01346048  00000+0 -57009-2 0  9994
2 67334  42.9980 151.1433 0001507 283.5609 186.1272 15.87095273  2726
STARLINK-36486          
1 67335U 26003B   26019.58335648 -.01358252  00000+0 -57497-2 0  9996
2 67335  42.9981 151.1390 0001408 284.4666 187.0018 15.87132286  2772
STARLINK-36480          
1 67336U 26003C   26019.58335648 -.01364795  00000+0 -57744-2 0  9991
2 67336  42.9983 151.1332 0001432 283.1793 190.5915 15.87156063  2779
STARLINK-36410          
1 67337U 26003D   26019.58335648 -.01370230  00000+0 -57949-2 0  9990
2 67337  42.9983 151.1272 0001514 279.3466 196.7365 15.87175092  2778
